{
  "type": "FeatureCollection",
  "features": [
    {
      "type": "Feature",
      "properties": {
        "norad_id": 30231,
        "name": "FENGYUN 1C DEB",
        "group": "fengyun-1c-debris",
        "lat": 1.1603815767581547,
        "lon": -158.5698716419179,
        "alt_km": 902.2747265378266,
        "timestamp": "2025-12-02T07:10:09.390195+00:00",
        "meta_object_name": "FENGYUN 1C DEB",
        "meta_object_id": "1999-025WQ",
        "meta_epoch": "2025-12-01T15:35:36.790368",
        "meta_mean_motion": 14.11605571,
        "meta_eccentricity": 0.01289859,
        "meta_inclination": 98.8065,
        "meta_ra_of_asc_node": 20.6132,
        "meta_arg_of_pericenter": 60.6118,
        "meta_mean_anomaly": 60.6312,
        "meta_ephemeris_type": 0,
        "meta_classification_type": "U",
        "meta_norad_cat_id": 30231,
        "meta_element_set_no": 999,
        "meta_rev_at_epoch": 96863,
        "meta_bstar": 0.00062241379,
        "meta_mean_motion_dot": 1.18e-05,
        "meta_mean_motion_ddot": 0,
        "tle_line1": "1 30231U 99025WQ  25335.64973137  .00001180  00000+0  62241-3 0  9999",
        "tle_line2": "2 30231  98.8065  20.6132 0128985  60.6118  60.6312 14.11605571968637"
      },
      "geometry": {
        "type": "Point",
        "coordinates": [
          -158.5698716419179,
          1.1603815767581547
        ]
      }
    },
    {
      "type": "Feature",
      "properties": {
        "norad_id": 30232,
        "name": "FENGYUN 1C DEB",
        "group": "fengyun-1c-debris",
        "lat": -30.945502677055593,
        "lon": -178.8487379202576,
        "alt_km": 629.3697705459208,
        "timestamp": "2025-12-02T07:10:09.390206+00:00",
        "meta_object_name": "FENGYUN 1C DEB",
        "meta_object_id": "1999-025WR",
        "meta_epoch": "2025-12-01T11:52:30.992160",
        "meta_mean_motion": 14.634588,
        "meta_eccentricity": 0.013675,
        "meta_inclination": 98.6944,
        "meta_ra_of_asc_node": 175.0396,
        "meta_arg_of_pericenter": 24.4821,
        "meta_mean_anomaly": 32.609,
        "meta_ephemeris_type": 0,
        "meta_classification_type": "U",
        "meta_norad_cat_id": 30232,
        "meta_element_set_no": 999,
        "meta_rev_at_epoch": 99587,
        "meta_bstar": 0.00067608303,
        "meta_mean_motion_dot": 3.95e-05,
        "meta_mean_motion_ddot": 0,
        "tle_line1": "1 30232U 99025WR  25335.49480315  .00003950  00000+0  67608-3 0  9993",
        "tle_line2": "2 30232  98.6944 175.0396 0136750  24.4821  32.6090 14.63458800995873"
      },
      "geometry": {
        "type": "Point",
        "coordinates": [
          -178.8487379202576,
          -30.945502677055593
        ]
      }
    },
    {
      "type": "Feature",
      "properties": {
        "norad_id": 30234,
        "name": "FENGYUN 1C DEB",
        "group": "fengyun-1c-debris",
        "lat": -5.06005267062571,
        "lon": 166.61275385900004,
        "alt_km": 831.1314152040513,
        "timestamp": "2025-12-02T07:10:09.390216+00:00",
        "meta_object_name": "FENGYUN 1C DEB",
        "meta_object_id": "1999-025WT",
        "meta_epoch": "2025-12-01T19:17:05.976096",
        "meta_mean_motion": 14.16840976,
        "meta_eccentricity": 0.0067077,
        "meta_inclination": 98.6342,
        "meta_ra_of_asc_node": 346.903,
        "meta_arg_of_pericenter": 106.1232,
        "meta_mean_anomaly": 73.8209,
        "meta_ephemeris_type": 0,
        "meta_classification_type": "U",
        "meta_norad_cat_id": 30234,
        "meta_element_set_no": 999,
        "meta_rev_at_epoch": 97301,
        "meta_bstar": 0.00034203,
        "meta_mean_motion_dot": 6.59e-06,
        "meta_mean_motion_ddot": 0,
        "tle_line1": "1 30234U 99025WT  25335.80354139  .00000659  00000+0  34203-3 0  9992",
        "tle_line2": "2 30234  98.6342 346.9030 0067077 106.1232  73.8209 14.16840976973018"
      },
      "geometry": {
        "type": "Point",
        "coordinates": [
          166.61275385900004,
          -5.06005267062571
        ]
      }
    },
    {
      "type": "Feature",
      "properties": {
        "norad_id": 30235,
        "name": "FENGYUN 1C DEB",
        "group": "fengyun-1c-debris",
        "lat": 81.14290553572792,
        "lon": -86.49016895403986,
        "alt_km": 967.1575199891913,
        "timestamp": "2025-12-02T07:10:09.390226+00:00",
        "meta_object_name": "FENGYUN 1C DEB",
        "meta_object_id": "1999-025WU",
        "meta_epoch": "2025-12-01T14:15:21.288960",
        "meta_mean_motion": 14.0875243,
        "meta_eccentricity": 0.01532229,
        "meta_inclination": 98.7504,
        "meta_ra_of_asc_node": 354.0849,
        "meta_arg_of_pericenter": 270.2373,
        "meta_mean_anomaly": 206.4161,
        "meta_ephemeris_type": 0,
        "meta_classification_type": "U",
        "meta_norad_cat_id": 30235,
        "meta_element_set_no": 999,
        "meta_rev_at_epoch": 96736,
        "meta_bstar": 0.00042165631,
        "meta_mean_motion_dot": 7.66e-06,
        "meta_mean_motion_ddot": 0,
        "tle_line1": "1 30235U 99025WU  25335.59399640  .00000766  00000+0  42166-3 0  9991",
        "tle_line2": "2 30235  98.7504 354.0849 0153222 270.2373 206.4161 14.08752430967365"
      },
      "geometry": {
        "type": "Point",
        "coordinates": [
          -86.49016895403986,
          81.14290553572792
        ]
      }
    },
    {
      "type": "Feature",
      "properties": {
        "norad_id": 30237,
        "name": "FENGYUN 1C DEB",
        "group": "fengyun-1c-debris",
        "lat": -77.13617631267375,
        "lon": -144.16208580426468,
        "alt_km": 761.7017567168396,
        "timestamp": "2025-12-02T07:10:09.390236+00:00",
        "meta_object_name": "FENGYUN 1C DEB",
        "meta_object_id": "1999-025WW",
        "meta_epoch": "2025-12-01T20:31:20.768736",
        "meta_mean_motion": 14.40621197,
        "meta_eccentricity": 0.0013231,
        "meta_inclination": 98.8272,
        "meta_ra_of_asc_node": 78.2604,
        "meta_arg_of_pericenter": 339.5672,
        "meta_mean_anomaly": 141.7724,
        "meta_ephemeris_type": 0,
        "meta_classification_type": "U",
        "meta_norad_cat_id": 30237,
        "meta_element_set_no": 999,
        "meta_rev_at_epoch": 97541,
        "meta_bstar": 0.0023937,
        "meta_mean_motion_dot": 7.603e-05,
        "meta_mean_motion_ddot": 0,
        "tle_line1": "1 30237U 99025WW  25335.85510149  .00007603  00000+0  23937-2 0  9992",
        "tle_line2": "2 30237  98.8272  78.2604 0013231 339.5672 141.7724 14.40621197975412"
      },
      "geometry": {
        "type": "Point",
        "coordinates": [
          -144.16208580426468,
          -77.13617631267375
        ]
      }
    },
    {
      "type": "Feature",
      "properties": {
        "norad_id": 30239,
        "name": "FENGYUN 1C DEB",
        "group": "fengyun-1c-debris",
        "lat": -58.564120148121496,
        "lon": 144.3009489457867,
        "alt_km": 2204.314412193654,
        "timestamp": "2025-12-02T07:10:09.390247+00:00",
        "meta_object_name": "FENGYUN 1C DEB",
        "meta_object_id": "1999-025WY",
        "meta_epoch": "2025-12-01T16:43:43.209696",
        "meta_mean_motion": 11.37992429,
        "meta_eccentricity": 0.1346065,
        "meta_inclination": 99.5973,
        "meta_ra_of_asc_node": 127.8306,
        "meta_arg_of_pericenter": 50.2678,
        "meta_mean_anomaly": 320.941,
        "meta_ephemeris_type": 0,
        "meta_classification_type": "U",
        "meta_norad_cat_id": 30239,
        "meta_element_set_no": 999,
        "meta_rev_at_epoch": 54409,
        "meta_bstar": 0.0098832,
        "meta_mean_motion_dot": 3.26e-05,
        "meta_mean_motion_ddot": 0,
        "tle_line1": "1 30239U 99025WY  25335.69702789  .00003260  00000+0  98832-2 0  9990",
        "tle_line2": "2 30239  99.5973 127.8306 1346065  50.2678 320.9410 11.37992429544099"
      },
      "geometry": {
        "type": "Point",
        "coordinates": [
          144.3009489457867,
          -58.564120148121496
        ]
      }
    },
    {
      "type": "Feature",
      "properties": {
        "norad_id": 30241,
        "name": "FENGYUN 1C DEB",
        "group": "fengyun-1c-debris",
        "lat": -74.6937719843025,
        "lon": 145.07939801890876,
        "alt_km": 973.5743614691837,
        "timestamp": "2025-12-02T07:10:09.390257+00:00",
        "meta_object_name": "FENGYUN 1C DEB",
        "meta_object_id": "1999-025XA",
        "meta_epoch": "2025-12-01T14:48:38.172672",
        "meta_mean_motion": 14.09526594,
        "meta_eccentricity": 0.01468233,
        "meta_inclination": 99.1482,
        "meta_ra_of_asc_node": 108.317,
        "meta_arg_of_pericenter": 112.0155,
        "meta_mean_anomaly": 313.3087,
        "meta_ephemeris_type": 0,
        "meta_classification_type": "U",
        "meta_norad_cat_id": 30241,
        "meta_element_set_no": 999,
        "meta_rev_at_epoch": 96755,
        "meta_bstar": 0.00029163726,
        "meta_mean_motion_dot": 5.19e-06,
        "meta_mean_motion_ddot": 0,
        "tle_line1": "1 30241U 99025XA  25335.61710848  .00000519  00000+0  29164-3 0  9997",
        "tle_line2": "2 30241  99.1482 108.3170 0146823 112.0155 313.3087 14.09526594967556"
      },
      "geometry": {
        "type": "Point",
        "coordinates": [
          145.07939801890876,
          -74.6937719843025
        ]
      }
    }
  ]
}